<?xml version="1.0" encoding="UTF-8"?>
<gpx version="1.1" creator="RouteTrackingServer test fixtures" xmlns="http://www.topografix.com/GPX/1/1">
  <metadata><name>city_loop</name><desc>A 1.6 km loop around a 400 m block at 10 m/s, back to the start</desc></metadata>
  <trk><name>city_loop</name><trkseg>
    <trkpt lat="10.7725000" lon="106.6980000"><time>2026-09-30T02:00:00Z</time></trkpt>
    <trkpt lat="10.7725000" lon="106.6980915"><time>2026-09-30T02:00:01Z</time></trkpt>
    <trkpt lat="10.7725000" lon="106.6981831"><time>2026-09-30T02:00:02Z</time></trkpt>
    <trkpt lat="10.7725000" lon="106.6982746"><time>2026-09-30T02:00:03Z</time></trkpt>
    <trkpt lat="10.7725000" lon="106.6983662"><time>2026-09-30T02:00:04Z</time></trkpt>
    <trkpt lat="10.7725000" lon="106.6984577"><time>2026-09-30T02:00:05Z</time></trkpt>
    <trkpt lat="10.7725000" lon="106.6985493"><time>2026-09-30T02:00:06Z</time></trkpt>
    <trkpt lat="10.7725000" lon="106.6986408"><time>2026-09-30T02:00:07Z</time></trkpt>
    <trkpt lat="10.7725000" lon="106.6987324"><time>2026-09-30T02:00:08Z</time></trkpt>
    <trkpt lat="10.7725000" lon="106.6988239"><time>2026-09-30T02:00:09Z</time></trkpt>
    <trkpt lat="10.7725000" lon="106.6989155"><time>2026-09-30T02:00:10Z</time></trkpt>
    <trkpt lat="10.7725000" lon="106.6990070"><time>2026-09-30T02:00:11Z</time></trkpt>
    <trkpt lat="10.7725000" lon="106.6990985"><time>2026-09-30T02:00:12Z</time></trkpt>
    <trkpt lat="10.7725000" lon="106.6991901"><time>2026-09-30T02:00:13Z</time></trkpt>
    <trkpt lat="10.7725000" lon="106.6992816"><time>2026-09-30T02:00:14Z</time></trkpt>
    <trkpt lat="10.7725000" lon="106.6993732"><time>2026-09-30T02:00:15Z</time></trkpt>
    <trkpt lat="10.7725000" lon="106.6994647"><time>2026-09-30T02:00:16Z</time></trkpt>
    <trkpt lat="10.7725000" lon="106.6995563"><time>2026-09-30T02:00:17Z</time></trkpt>
    <trkpt lat="10.7725000" lon="106.6996478"><time>2026-09-30T02:00:18Z</time></trkpt>
    <trkpt lat="10.7725000" lon="106.6997394"><time>2026-09-30T02:00:19Z</time></trkpt>
    <trkpt lat="10.7725000" lon="106.6998309"><time>2026-09-30T02:00:20Z</time></trkpt>
    <trkpt lat="10.7725000" lon="106.6999225"><time>2026-09-30T02:00:21Z</time></trkpt>
    <trkpt lat="10.7725000" lon="106.7000140"><time>2026-09-30T02:00:22Z</time></trkpt>
    <trkpt lat="10.7725000" lon="106.7001055"><time>2026-09-30T02:00:23Z</time></trkpt>
    <trkpt lat="10.7725000" lon="106.7001971"><time>2026-09-30T02:00:24Z</time></trkpt>
    <trkpt lat="10.7725000" lon="106.7002886"><time>2026-09-30T02:00:25Z</time></trkpt>
    <trkpt lat="10.7725000" lon="106.7003802"><time>2026-09-30T02:00:26Z</time></trkpt>
    <trkpt lat="10.7725000" lon="106.7004717"><time>2026-09-30T02:00:27Z</time></trkpt>
    <trkpt lat="10.7725000" lon="106.7005633"><time>2026-09-30T02:00:28Z</time></trkpt>
    <trkpt lat="10.7725000" lon="106.7006548"><time>2026-09-30T02:00:29Z</time></trkpt>
    <trkpt lat="10.7725000" lon="106.7007464"><time>2026-09-30T02:00:30Z</time></trkpt>
    <trkpt lat="10.7725000" lon="106.7008379"><time>2026-09-30T02:00:31Z</time></trkpt>
    <trkpt lat="10.7725000" lon="106.7009295"><time>2026-09-30T02:00:32Z</time></trkpt>
    <trkpt lat="10.7725000" lon="106.7010210"><time>2026-09-30T02:00:33Z</time></trkpt>
    <trkpt lat="10.7725000" lon="106.7011125"><time>2026-09-30T02:00:34Z</time></trkpt>
    <trkpt lat="10.7725000" lon="106.7012041"><time>2026-09-30T02:00:35Z</time></trkpt>
    <trkpt lat="10.7725000" lon="106.7012956"><time>2026-09-30T02:00:36Z</time></trkpt>
    <trkpt lat="10.7725000" lon="106.7013872"><time>2026-09-30T02:00:37Z</time></trkpt>
    <trkpt lat="10.7725000" lon="106.7014787"><time>2026-09-30T02:00:38Z</time></trkpt>
    <trkpt lat="10.7725000" lon="106.7015703"><time>2026-09-30T02:00:39Z</time></trkpt>
    <trkpt lat="10.7725000" lon="106.7016618"><time>2026-09-30T02:00:40Z</time></trkpt>
    <trkpt lat="10.7725899" lon="106.7016618"><time>2026-09-30T02:00:41Z</time></trkpt>
    <trkpt lat="10.7726799" lon="106.7016618"><time>2026-09-30T02:00:42Z</time></trkpt>
    <trkpt lat="10.7727698" lon="106.7016618"><time>2026-09-30T02:00:43Z</time></trkpt>
    <trkpt lat="10.7728597" lon="106.7016618"><time>2026-09-30T02:00:44Z</time></trkpt>
    <trkpt lat="10.7729497" lon="106.7016618"><time>2026-09-30T02:00:45Z</time></trkpt>
    <trkpt lat="10.7730396" lon="106.7016618"><time>2026-09-30T02:00:46Z</time></trkpt>
    <trkpt lat="10.7731295" lon="106.7016618"><time>2026-09-30T02:00:47Z</time></trkpt>
    <trkpt lat="10.7732195" lon="106.7016618"><time>2026-09-30T02:00:48Z</time></trkpt>
    <trkpt lat="10.7733094" lon="106.7016618"><time>2026-09-30T02:00:49Z</time></trkpt>
    <trkpt lat="10.7733993" lon="106.7016618"><time>2026-09-30T02:00:50Z</time></trkpt>
    <trkpt lat="10.7734893" lon="106.7016618"><time>2026-09-30T02:00:51Z</time></trkpt>
    <trkpt lat="10.7735792" lon="106.7016618"><time>2026-09-30T02:00:52Z</time></trkpt>
    <trkpt lat="10.7736691" lon="106.7016618"><time>2026-09-30T02:00:53Z</time></trkpt>
    <trkpt lat="10.7737590" lon="106.7016618"><time>2026-09-30T02:00:54Z</time></trkpt>
    <trkpt lat="10.7738490" lon="106.7016618"><time>2026-09-30T02:00:55Z</time></trkpt>
    <trkpt lat="10.7739389" lon="106.7016618"><time>2026-09-30T02:00:56Z</time></trkpt>
    <trkpt lat="10.7740288" lon="106.7016618"><time>2026-09-30T02:00:57Z</time></trkpt>
    <trkpt lat="10.7741188" lon="106.7016618"><time>2026-09-30T02:00:58Z</time></trkpt>
    <trkpt lat="10.7742087" lon="106.7016618"><time>2026-09-30T02:00:59Z</time></trkpt>
    <trkpt lat="10.7742986" lon="106.7016618"><time>2026-09-30T02:01:00Z</time></trkpt>
    <trkpt lat="10.7743886" lon="106.7016618"><time>2026-09-30T02:01:01Z</time></trkpt>
    <trkpt lat="10.7744785" lon="106.7016618"><time>2026-09-30T02:01:02Z</time></trkpt>
    <trkpt lat="10.7745684" lon="106.7016618"><time>2026-09-30T02:01:03Z</time></trkpt>
    <trkpt lat="10.7746584" lon="106.7016618"><time>2026-09-30T02:01:04Z</time></trkpt>
    <trkpt lat="10.7747483" lon="106.7016618"><time>2026-09-30T02:01:05Z</time></trkpt>
    <trkpt lat="10.7748382" lon="106.7016618"><time>2026-09-30T02:01:06Z</time></trkpt>
    <trkpt lat="10.7749282" lon="106.7016618"><time>2026-09-30T02:01:07Z</time></trkpt>
    <trkpt lat="10.7750181" lon="106.7016618"><time>2026-09-30T02:01:08Z</time></trkpt>
    <trkpt lat="10.7751080" lon="106.7016618"><time>2026-09-30T02:01:09Z</time></trkpt>
    <trkpt lat="10.7751980" lon="106.7016618"><time>2026-09-30T02:01:10Z</time></trkpt>
    <trkpt lat="10.7752879" lon="106.7016618"><time>2026-09-30T02:01:11Z</time></trkpt>
    <trkpt lat="10.7753778" lon="106.7016618"><time>2026-09-30T02:01:12Z</time></trkpt>
    <trkpt lat="10.7754678" lon="106.7016618"><time>2026-09-30T02:01:13Z</time></trkpt>
    <trkpt lat="10.7755577" lon="106.7016618"><time>2026-09-30T02:01:14Z</time></trkpt>
    <trkpt lat="10.7756476" lon="106.7016618"><time>2026-09-30T02:01:15Z</time></trkpt>
    <trkpt lat="10.7757376" lon="106.7016618"><time>2026-09-30T02:01:16Z</time></trkpt>
    <trkpt lat="10.7758275" lon="106.7016618"><time>2026-09-30T02:01:17Z</time></trkpt>
    <trkpt lat="10.7759174" lon="106.7016618"><time>2026-09-30T02:01:18Z</time></trkpt>
    <trkpt lat="10.7760073" lon="106.7016618"><time>2026-09-30T02:01:19Z</time></trkpt>
    <trkpt lat="10.7760973" lon="106.7016618"><time>2026-09-30T02:01:20Z</time></trkpt>
    <trkpt lat="10.7760973" lon="106.7015703"><time>2026-09-30T02:01:21Z</time></trkpt>
    <trkpt lat="10.7760973" lon="106.7014787"><time>2026-09-30T02:01:22Z</time></trkpt>
    <trkpt lat="10.7760973" lon="106.7013872"><time>2026-09-30T02:01:23Z</time></trkpt>
    <trkpt lat="10.7760973" lon="106.7012956"><time>2026-09-30T02:01:24Z</time></trkpt>
    <trkpt lat="10.7760973" lon="106.7012041"><time>2026-09-30T02:01:25Z</time></trkpt>
    <trkpt lat="10.7760973" lon="106.7011125"><time>2026-09-30T02:01:26Z</time></trkpt>
    <trkpt lat="10.7760973" lon="106.7010210"><time>2026-09-30T02:01:27Z</time></trkpt>
    <trkpt lat="10.7760973" lon="106.7009294"><time>2026-09-30T02:01:28Z</time></trkpt>
    <trkpt lat="10.7760973" lon="106.7008379"><time>2026-09-30T02:01:29Z</time></trkpt>
    <trkpt lat="10.7760973" lon="106.7007463"><time>2026-09-30T02:01:30Z</time></trkpt>
    <trkpt lat="10.7760973" lon="106.7006548"><time>2026-09-30T02:01:31Z</time></trkpt>
    <trkpt lat="10.7760973" lon="106.7005633"><time>2026-09-30T02:01:32Z</time></trkpt>
    <trkpt lat="10.7760973" lon="106.7004717"><time>2026-09-30T02:01:33Z</time></trkpt>
    <trkpt lat="10.7760973" lon="106.7003802"><time>2026-09-30T02:01:34Z</time></trkpt>
    <trkpt lat="10.7760973" lon="106.7002886"><time>2026-09-30T02:01:35Z</time></trkpt>
    <trkpt lat="10.7760973" lon="106.7001971"><time>2026-09-30T02:01:36Z</time></trkpt>
    <trkpt lat="10.7760973" lon="106.7001055"><time>2026-09-30T02:01:37Z</time></trkpt>
    <trkpt lat="10.7760973" lon="106.7000140"><time>2026-09-30T02:01:38Z</time></trkpt>
    <trkpt lat="10.7760973" lon="106.6999224"><time>2026-09-30T02:01:39Z</time></trkpt>
    <trkpt lat="10.7760973" lon="106.6998309"><time>2026-09-30T02:01:40Z</time></trkpt>
    <trkpt lat="10.7760973" lon="106.6997393"><time>2026-09-30T02:01:41Z</time></trkpt>
    <trkpt lat="10.7760973" lon="106.6996478"><time>2026-09-30T02:01:42Z</time></trkpt>
    <trkpt lat="10.7760973" lon="106.6995562"><time>2026-09-30T02:01:43Z</time></trkpt>
    <trkpt lat="10.7760973" lon="106.6994647"><time>2026-09-30T02:01:44Z</time></trkpt>
    <trkpt lat="10.7760973" lon="106.6993732"><time>2026-09-30T02:01:45Z</time></trkpt>
    <trkpt lat="10.7760973" lon="106.6992816"><time>2026-09-30T02:01:46Z</time></trkpt>
    <trkpt lat="10.7760973" lon="106.6991901"><time>2026-09-30T02:01:47Z</time></trkpt>
    <trkpt lat="10.7760973" lon="106.6990985"><time>2026-09-30T02:01:48Z</time></trkpt>
    <trkpt lat="10.7760973" lon="106.6990070"><time>2026-09-30T02:01:49Z</time></trkpt>
    <trkpt lat="10.7760973" lon="106.6989154"><time>2026-09-30T02:01:50Z</time></trkpt>
    <trkpt lat="10.7760973" lon="106.6988239"><time>2026-09-30T02:01:51Z</time></trkpt>
    <trkpt lat="10.7760973" lon="106.6987323"><time>2026-09-30T02:01:52Z</time></trkpt>
    <trkpt lat="10.7760973" lon="106.6986408"><time>2026-09-30T02:01:53Z</time></trkpt>
    <trkpt lat="10.7760973" lon="106.6985492"><time>2026-09-30T02:01:54Z</time></trkpt>
    <trkpt lat="10.7760973" lon="106.6984577"><time>2026-09-30T02:01:55Z</time></trkpt>
    <trkpt lat="10.7760973" lon="106.6983661"><time>2026-09-30T02:01:56Z</time></trkpt>
    <trkpt lat="10.7760973" lon="106.6982746"><time>2026-09-30T02:01:57Z</time></trkpt>
    <trkpt lat="10.7760973" lon="106.6981830"><time>2026-09-30T02:01:58Z</time></trkpt>
    <trkpt lat="10.7760973" lon="106.6980915"><time>2026-09-30T02:01:59Z</time></trkpt>
    <trkpt lat="10.7760973" lon="106.6980000"><time>2026-09-30T02:02:00Z</time></trkpt>
    <trkpt lat="10.7760073" lon="106.6980000"><time>2026-09-30T02:02:01Z</time></trkpt>
    <trkpt lat="10.7759174" lon="106.6980000"><time>2026-09-30T02:02:02Z</time></trkpt>
    <trkpt lat="10.7758275" lon="106.6980000"><time>2026-09-30T02:02:03Z</time></trkpt>
    <trkpt lat="10.7757376" lon="106.6980000"><time>2026-09-30T02:02:04Z</time></trkpt>
    <trkpt lat="10.7756476" lon="106.6980000"><time>2026-09-30T02:02:05Z</time></trkpt>
    <trkpt lat="10.7755577" lon="106.6980000"><time>2026-09-30T02:02:06Z</time></trkpt>
    <trkpt lat="10.7754678" lon="106.6980000"><time>2026-09-30T02:02:07Z</time></trkpt>
    <trkpt lat="10.7753778" lon="106.6980000"><time>2026-09-30T02:02:08Z</time></trkpt>
    <trkpt lat="10.7752879" lon="106.6980000"><time>2026-09-30T02:02:09Z</time></trkpt>
    <trkpt lat="10.7751980" lon="106.6980000"><time>2026-09-30T02:02:10Z</time></trkpt>
    <trkpt lat="10.7751080" lon="106.6980000"><time>2026-09-30T02:02:11Z</time></trkpt>
    <trkpt lat="10.7750181" lon="106.6980000"><time>2026-09-30T02:02:12Z</time></trkpt>
    <trkpt lat="10.7749282" lon="106.6980000"><time>2026-09-30T02:02:13Z</time></trkpt>
    <trkpt lat="10.7748382" lon="106.6980000"><time>2026-09-30T02:02:14Z</time></trkpt>
    <trkpt lat="10.7747483" lon="106.6980000"><time>2026-09-30T02:02:15Z</time></trkpt>
    <trkpt lat="10.7746584" lon="106.6980000"><time>2026-09-30T02:02:16Z</time></trkpt>
    <trkpt lat="10.7745684" lon="106.6980000"><time>2026-09-30T02:02:17Z</time></trkpt>
    <trkpt lat="10.7744785" lon="106.6980000"><time>2026-09-30T02:02:18Z</time></trkpt>
    <trkpt lat="10.7743886" lon="106.6980000"><time>2026-09-30T02:02:19Z</time></trkpt>
    <trkpt lat="10.7742986" lon="106.6980000"><time>2026-09-30T02:02:20Z</time></trkpt>
    <trkpt lat="10.7742087" lon="106.6980000"><time>2026-09-30T02:02:21Z</time></trkpt>
    <trkpt lat="10.7741188" lon="106.6980000"><time>2026-09-30T02:02:22Z</time></trkpt>
    <trkpt lat="10.7740288" lon="106.6980000"><time>2026-09-30T02:02:23Z</time></trkpt>
    <trkpt lat="10.7739389" lon="106.6980000"><time>2026-09-30T02:02:24Z</time></trkpt>
    <trkpt lat="10.7738490" lon="106.6980000"><time>2026-09-30T02:02:25Z</time></trkpt>
    <trkpt lat="10.7737590" lon="106.6980000"><time>2026-09-30T02:02:26Z</time></trkpt>
    <trkpt lat="10.7736691" lon="106.6980000"><time>2026-09-30T02:02:27Z</time></trkpt>
    <trkpt lat="10.7735792" lon="106.6980000"><time>2026-09-30T02:02:28Z</time></trkpt>
    <trkpt lat="10.7734893" lon="106.6980000"><time>2026-09-30T02:02:29Z</time></trkpt>
    <trkpt lat="10.7733993" lon="106.6980000"><time>2026-09-30T02:02:30Z</time></trkpt>
    <trkpt lat="10.7733094" lon="106.6980000"><time>2026-09-30T02:02:31Z</time></trkpt>
    <trkpt lat="10.7732195" lon="106.6980000"><time>2026-09-30T02:02:32Z</time></trkpt>
    <trkpt lat="10.7731295" lon="106.6980000"><time>2026-09-30T02:02:33Z</time></trkpt>
    <trkpt lat="10.7730396" lon="106.6980000"><time>2026-09-30T02:02:34Z</time></trkpt>
    <trkpt lat="10.7729497" lon="106.6980000"><time>2026-09-30T02:02:35Z</time></trkpt>
    <trkpt lat="10.7728597" lon="106.6980000"><time>2026-09-30T02:02:36Z</time></trkpt>
    <trkpt lat="10.7727698" lon="106.6980000"><time>2026-09-30T02:02:37Z</time></trkpt>
    <trkpt lat="10.7726799" lon="106.6980000"><time>2026-09-30T02:02:38Z</time></trkpt>
    <trkpt lat="10.7725899" lon="106.6980000"><time>2026-09-30T02:02:39Z</time></trkpt>
    <trkpt lat="10.7725000" lon="106.6980000"><time>2026-09-30T02:02:40Z</time></trkpt>
  </trkseg></trk>
</gpx>
