<?xml version="1.0" encoding="UTF-8"?>
<gpx version="1.1" creator="RouteTrackingServer test fixtures" xmlns="http://www.topografix.com/GPX/1/1">
  <metadata><name>gps_jump</name><desc>600 m north at 10 m/s; points marked spike are 1 km off the road (GPS errors)</desc></metadata>
  <trk><name>gps_jump</name><trkseg>
    <trkpt lat="10.7725000" lon="106.6980000"><time>2026-09-30T02:00:00Z</time></trkpt>
    <trkpt lat="10.7725899" lon="106.6980000"><time>2026-09-30T02:00:01Z</time></trkpt>
    <trkpt lat="10.7726799" lon="106.6980000"><time>2026-09-30T02:00:02Z</time></trkpt>
    <trkpt lat="10.7727698" lon="106.6980000"><time>2026-09-30T02:00:03Z</time></trkpt>
    <trkpt lat="10.7728597" lon="106.6980000"><time>2026-09-30T02:00:04Z</time></trkpt>
    <trkpt lat="10.7729497" lon="106.6980000"><time>2026-09-30T02:00:05Z</time></trkpt>
    <trkpt lat="10.7730396" lon="106.6980000"><time>2026-09-30T02:00:06Z</time></trkpt>
    <trkpt lat="10.7731295" lon="106.6980000"><time>2026-09-30T02:00:07Z</time></trkpt>
    <trkpt lat="10.7732195" lon="106.6980000"><time>2026-09-30T02:00:08Z</time></trkpt>
    <trkpt lat="10.7733094" lon="106.6980000"><time>2026-09-30T02:00:09Z</time></trkpt>
    <trkpt lat="10.7733993" lon="106.6980000"><time>2026-09-30T02:00:10Z</time></trkpt>
    <trkpt lat="10.7734893" lon="106.6980000"><time>2026-09-30T02:00:11Z</time></trkpt>
    <trkpt lat="10.7735792" lon="106.6980000"><time>2026-09-30T02:00:12Z</time></trkpt>
    <trkpt lat="10.7736691" lon="106.6980000"><time>2026-09-30T02:00:13Z</time></trkpt>
    <trkpt lat="10.7737590" lon="106.6980000"><time>2026-09-30T02:00:14Z</time></trkpt>
    <trkpt lat="10.7738490" lon="106.6980000"><time>2026-09-30T02:00:15Z</time></trkpt>
    <trkpt lat="10.7739389" lon="106.6980000"><time>2026-09-30T02:00:16Z</time></trkpt>
    <trkpt lat="10.7740288" lon="106.6980000"><time>2026-09-30T02:00:17Z</time></trkpt>
    <trkpt lat="10.7741188" lon="106.6980000"><time>2026-09-30T02:00:18Z</time></trkpt>
    <trkpt lat="10.7742087" lon="106.6980000"><time>2026-09-30T02:00:19Z</time></trkpt>
    <trkpt lat="10.7742986" lon="106.7071546"><time>2026-09-30T02:00:20Z</time><desc>spike</desc></trkpt>
    <trkpt lat="10.7743886" lon="106.6980000"><time>2026-09-30T02:00:21Z</time></trkpt>
    <trkpt lat="10.7744785" lon="106.6980000"><time>2026-09-30T02:00:22Z</time></trkpt>
    <trkpt lat="10.7745684" lon="106.6980000"><time>2026-09-30T02:00:23Z</time></trkpt>
    <trkpt lat="10.7746584" lon="106.6980000"><time>2026-09-30T02:00:24Z</time></trkpt>
    <trkpt lat="10.7747483" lon="106.6980000"><time>2026-09-30T02:00:25Z</time></trkpt>
    <trkpt lat="10.7748382" lon="106.6980000"><time>2026-09-30T02:00:26Z</time></trkpt>
    <trkpt lat="10.7749282" lon="106.6980000"><time>2026-09-30T02:00:27Z</time></trkpt>
    <trkpt lat="10.7750181" lon="106.6980000"><time>2026-09-30T02:00:28Z</time></trkpt>
    <trkpt lat="10.7751080" lon="106.6980000"><time>2026-09-30T02:00:29Z</time></trkpt>
    <trkpt lat="10.7751980" lon="106.6980000"><time>2026-09-30T02:00:30Z</time></trkpt>
    <trkpt lat="10.7752879" lon="106.6980000"><time>2026-09-30T02:00:31Z</time></trkpt>
    <trkpt lat="10.7753778" lon="106.6980000"><time>2026-09-30T02:00:32Z</time></trkpt>
    <trkpt lat="10.7754678" lon="106.6980000"><time>2026-09-30T02:00:33Z</time></trkpt>
    <trkpt lat="10.7755577" lon="106.6980000"><time>2026-09-30T02:00:34Z</time></trkpt>
    <trkpt lat="10.7756476" lon="106.6980000"><time>2026-09-30T02:00:35Z</time></trkpt>
    <trkpt lat="10.7757376" lon="106.6980000"><time>2026-09-30T02:00:36Z</time></trkpt>
    <trkpt lat="10.7758275" lon="106.6980000"><time>2026-09-30T02:00:37Z</time></trkpt>
    <trkpt lat="10.7759174" lon="106.6980000"><time>2026-09-30T02:00:38Z</time></trkpt>
    <trkpt lat="10.7760073" lon="106.6980000"><time>2026-09-30T02:00:39Z</time></trkpt>
    <trkpt lat="10.7760973" lon="106.6980000"><time>2026-09-30T02:00:40Z</time></trkpt>
    <trkpt lat="10.7761872" lon="106.7071546"><time>2026-09-30T02:00:41Z</time><desc>spike</desc></trkpt>
    <trkpt lat="10.7762771" lon="106.6980000"><time>2026-09-30T02:00:42Z</time></trkpt>
    <trkpt lat="10.7763671" lon="106.6980000"><time>2026-09-30T02:00:43Z</time></trkpt>
    <trkpt lat="10.7764570" lon="106.6980000"><time>2026-09-30T02:00:44Z</time></trkpt>
    <trkpt lat="10.7765469" lon="106.6980000"><time>2026-09-30T02:00:45Z</time></trkpt>
    <trkpt lat="10.7766369" lon="106.6980000"><time>2026-09-30T02:00:46Z</time></trkpt>
    <trkpt lat="10.7767268" lon="106.6980000"><time>2026-09-30T02:00:47Z</time></trkpt>
    <trkpt lat="10.7768167" lon="106.6980000"><time>2026-09-30T02:00:48Z</time></trkpt>
    <trkpt lat="10.7769067" lon="106.6980000"><time>2026-09-30T02:00:49Z</time></trkpt>
    <trkpt lat="10.7769966" lon="106.6980000"><time>2026-09-30T02:00:50Z</time></trkpt>
    <trkpt lat="10.7770865" lon="106.6980000"><time>2026-09-30T02:00:51Z</time></trkpt>
    <trkpt lat="10.7771765" lon="106.6980000"><time>2026-09-30T02:00:52Z</time></trkpt>
    <trkpt lat="10.7772664" lon="106.6980000"><time>2026-09-30T02:00:53Z</time></trkpt>
    <trkpt lat="10.7773563" lon="106.6980000"><time>2026-09-30T02:00:54Z</time></trkpt>
    <trkpt lat="10.7774463" lon="106.6980000"><time>2026-09-30T02:00:55Z</time></trkpt>
    <trkpt lat="10.7775362" lon="106.6980000"><time>2026-09-30T02:00:56Z</time></trkpt>
    <trkpt lat="10.7776261" lon="106.6980000"><time>2026-09-30T02:00:57Z</time></trkpt>
    <trkpt lat="10.7777161" lon="106.6980000"><time>2026-09-30T02:00:58Z</time></trkpt>
    <trkpt lat="10.7778060" lon="106.6980000"><time>2026-09-30T02:00:59Z</time></trkpt>
  </trkseg></trk>
</gpx>
