<?xml version="1.0" encoding="UTF-8"?>
<gpx version="1.1" creator="RouteTrackingServer test fixtures" xmlns="http://www.topografix.com/GPX/1/1">
  <metadata><name>straight_2km</name><desc>2 km straight north at 12.5 m/s, one fix per second</desc></metadata>
  <trk><name>straight_2km</name><trkseg>
    <trkpt lat="10.7725000" lon="106.6980000"><time>2026-09-30T02:00:00Z</time></trkpt>
    <trkpt lat="10.7726124" lon="106.6980000"><time>2026-09-30T02:00:01Z</time></trkpt>
    <trkpt lat="10.7727248" lon="106.6980000"><time>2026-09-30T02:00:02Z</time></trkpt>
    <trkpt lat="10.7728372" lon="106.6980000"><time>2026-09-30T02:00:03Z</time></trkpt>
    <trkpt lat="10.7729497" lon="106.6980000"><time>2026-09-30T02:00:04Z</time></trkpt>
    <trkpt lat="10.7730621" lon="106.6980000"><time>2026-09-30T02:00:05Z</time></trkpt>
    <trkpt lat="10.7731745" lon="106.6980000"><time>2026-09-30T02:00:06Z</time></trkpt>
    <trkpt lat="10.7732869" lon="106.6980000"><time>2026-09-30T02:00:07Z</time></trkpt>
    <trkpt lat="10.7733993" lon="106.6980000"><time>2026-09-30T02:00:08Z</time></trkpt>
    <trkpt lat="10.7735117" lon="106.6980000"><time>2026-09-30T02:00:09Z</time></trkpt>
    <trkpt lat="10.7736242" lon="106.6980000"><time>2026-09-30T02:00:10Z</time></trkpt>
    <trkpt lat="10.7737366" lon="106.6980000"><time>2026-09-30T02:00:11Z</time></trkpt>
    <trkpt lat="10.7738490" lon="106.6980000"><time>2026-09-30T02:00:12Z</time></trkpt>
    <trkpt lat="10.7739614" lon="106.6980000"><time>2026-09-30T02:00:13Z</time></trkpt>
    <trkpt lat="10.7740738" lon="106.6980000"><time>2026-09-30T02:00:14Z</time></trkpt>
    <trkpt lat="10.7741862" lon="106.6980000"><time>2026-09-30T02:00:15Z</time></trkpt>
    <trkpt lat="10.7742986" lon="106.6980000"><time>2026-09-30T02:00:16Z</time></trkpt>
    <trkpt lat="10.7744111" lon="106.6980000"><time>2026-09-30T02:00:17Z</time></trkpt>
    <trkpt lat="10.7745235" lon="106.6980000"><time>2026-09-30T02:00:18Z</time></trkpt>
    <trkpt lat="10.7746359" lon="106.6980000"><time>2026-09-30T02:00:19Z</time></trkpt>
    <trkpt lat="10.7747483" lon="106.6980000"><time>2026-09-30T02:00:20Z</time></trkpt>
    <trkpt lat="10.7748607" lon="106.6980000"><time>2026-09-30T02:00:21Z</time></trkpt>
    <trkpt lat="10.7749731" lon="106.6980000"><time>2026-09-30T02:00:22Z</time></trkpt>
    <trkpt lat="10.7750855" lon="106.6980000"><time>2026-09-30T02:00:23Z</time></trkpt>
    <trkpt lat="10.7751980" lon="106.6980000"><time>2026-09-30T02:00:24Z</time></trkpt>
    <trkpt lat="10.7753104" lon="106.6980000"><time>2026-09-30T02:00:25Z</time></trkpt>
    <trkpt lat="10.7754228" lon="106.6980000"><time>2026-09-30T02:00:26Z</time></trkpt>
    <trkpt lat="10.7755352" lon="106.6980000"><time>2026-09-30T02:00:27Z</time></trkpt>
    <trkpt lat="10.7756476" lon="106.6980000"><time>2026-09-30T02:00:28Z</time></trkpt>
    <trkpt lat="10.7757600" lon="106.6980000"><time>2026-09-30T02:00:29Z</time></trkpt>
    <trkpt lat="10.7758725" lon="106.6980000"><time>2026-09-30T02:00:30Z</time></trkpt>
    <trkpt lat="10.7759849" lon="106.6980000"><time>2026-09-30T02:00:31Z</time></trkpt>
    <trkpt lat="10.7760973" lon="106.6980000"><time>2026-09-30T02:00:32Z</time></trkpt>
    <trkpt lat="10.7762097" lon="106.6980000"><time>2026-09-30T02:00:33Z</time></trkpt>
    <trkpt lat="10.7763221" lon="106.6980000"><time>2026-09-30T02:00:34Z</time></trkpt>
    <trkpt lat="10.7764345" lon="106.6980000"><time>2026-09-30T02:00:35Z</time></trkpt>
    <trkpt lat="10.7765469" lon="106.6980000"><time>2026-09-30T02:00:36Z</time></trkpt>
    <trkpt lat="10.7766594" lon="106.6980000"><time>2026-09-30T02:00:37Z</time></trkpt>
    <trkpt lat="10.7767718" lon="106.6980000"><time>2026-09-30T02:00:38Z</time></trkpt>
    <trkpt lat="10.7768842" lon="106.6980000"><time>2026-09-30T02:00:39Z</time></trkpt>
    <trkpt lat="10.7769966" lon="106.6980000"><time>2026-09-30T02:00:40Z</time></trkpt>
    <trkpt lat="10.7771090" lon="106.6980000"><time>2026-09-30T02:00:41Z</time></trkpt>
    <trkpt lat="10.7772214" lon="106.6980000"><time>2026-09-30T02:00:42Z</time></trkpt>
    <trkpt lat="10.7773338" lon="106.6980000"><time>2026-09-30T02:00:43Z</time></trkpt>
    <trkpt lat="10.7774463" lon="106.6980000"><time>2026-09-30T02:00:44Z</time></trkpt>
    <trkpt lat="10.7775587" lon="106.6980000"><time>2026-09-30T02:00:45Z</time></trkpt>
    <trkpt lat="10.7776711" lon="106.6980000"><time>2026-09-30T02:00:46Z</time></trkpt>
    <trkpt lat="10.7777835" lon="106.6980000"><time>2026-09-30T02:00:47Z</time></trkpt>
    <trkpt lat="10.7778959" lon="106.6980000"><time>2026-09-30T02:00:48Z</time></trkpt>
    <trkpt lat="10.7780083" lon="106.6980000"><time>2026-09-30T02:00:49Z</time></trkpt>
    <trkpt lat="10.7781208" lon="106.6980000"><time>2026-09-30T02:00:50Z</time></trkpt>
    <trkpt lat="10.7782332" lon="106.6980000"><time>2026-09-30T02:00:51Z</time></trkpt>
    <trkpt lat="10.7783456" lon="106.6980000"><time>2026-09-30T02:00:52Z</time></trkpt>
    <trkpt lat="10.7784580" lon="106.6980000"><time>2026-09-30T02:00:53Z</time></trkpt>
    <trkpt lat="10.7785704" lon="106.6980000"><time>2026-09-30T02:00:54Z</time></trkpt>
    <trkpt lat="10.7786828" lon="106.6980000"><time>2026-09-30T02:00:55Z</time></trkpt>
    <trkpt lat="10.7787952" lon="106.6980000"><time>2026-09-30T02:00:56Z</time></trkpt>
    <trkpt lat="10.7789077" lon="106.6980000"><time>2026-09-30T02:00:57Z</time></trkpt>
    <trkpt lat="10.7790201" lon="106.6980000"><time>2026-09-30T02:00:58Z</time></trkpt>
    <trkpt lat="10.7791325" lon="106.6980000"><time>2026-09-30T02:00:59Z</time></trkpt>
    <trkpt lat="10.7792449" lon="106.6980000"><time>2026-09-30T02:01:00Z</time></trkpt>
    <trkpt lat="10.7793573" lon="106.6980000"><time>2026-09-30T02:01:01Z</time></trkpt>
    <trkpt lat="10.7794697" lon="106.6980000"><time>2026-09-30T02:01:02Z</time></trkpt>
    <trkpt lat="10.7795821" lon="106.6980000"><time>2026-09-30T02:01:03Z</time></trkpt>
    <trkpt lat="10.7796946" lon="106.6980000"><time>2026-09-30T02:01:04Z</time></trkpt>
    <trkpt lat="10.7798070" lon="106.6980000"><time>2026-09-30T02:01:05Z</time></trkpt>
    <trkpt lat="10.7799194" lon="106.6980000"><time>2026-09-30T02:01:06Z</time></trkpt>
    <trkpt lat="10.7800318" lon="106.6980000"><time>2026-09-30T02:01:07Z</time></trkpt>
    <trkpt lat="10.7801442" lon="106.6980000"><time>2026-09-30T02:01:08Z</time></trkpt>
    <trkpt lat="10.7802566" lon="106.6980000"><time>2026-09-30T02:01:09Z</time></trkpt>
    <trkpt lat="10.7803691" lon="106.6980000"><time>2026-09-30T02:01:10Z</time></trkpt>
    <trkpt lat="10.7804815" lon="106.6980000"><time>2026-09-30T02:01:11Z</time></trkpt>
    <trkpt lat="10.7805939" lon="106.6980000"><time>2026-09-30T02:01:12Z</time></trkpt>
    <trkpt lat="10.7807063" lon="106.6980000"><time>2026-09-30T02:01:13Z</time></trkpt>
    <trkpt lat="10.7808187" lon="106.6980000"><time>2026-09-30T02:01:14Z</time></trkpt>
    <trkpt lat="10.7809311" lon="106.6980000"><time>2026-09-30T02:01:15Z</time></trkpt>
    <trkpt lat="10.7810435" lon="106.6980000"><time>2026-09-30T02:01:16Z</time></trkpt>
    <trkpt lat="10.7811560" lon="106.6980000"><time>2026-09-30T02:01:17Z</time></trkpt>
    <trkpt lat="10.7812684" lon="106.6980000"><time>2026-09-30T02:01:18Z</time></trkpt>
    <trkpt lat="10.7813808" lon="106.6980000"><time>2026-09-30T02:01:19Z</time></trkpt>
    <trkpt lat="10.7814932" lon="106.6980000"><time>2026-09-30T02:01:20Z</time></trkpt>
    <trkpt lat="10.7816056" lon="106.6980000"><time>2026-09-30T02:01:21Z</time></trkpt>
    <trkpt lat="10.7817180" lon="106.6980000"><time>2026-09-30T02:01:22Z</time></trkpt>
    <trkpt lat="10.7818304" lon="106.6980000"><time>2026-09-30T02:01:23Z</time></trkpt>
    <trkpt lat="10.7819429" lon="106.6980000"><time>2026-09-30T02:01:24Z</time></trkpt>
    <trkpt lat="10.7820553" lon="106.6980000"><time>2026-09-30T02:01:25Z</time></trkpt>
    <trkpt lat="10.7821677" lon="106.6980000"><time>2026-09-30T02:01:26Z</time></trkpt>
    <trkpt lat="10.7822801" lon="106.6980000"><time>2026-09-30T02:01:27Z</time></trkpt>
    <trkpt lat="10.7823925" lon="106.6980000"><time>2026-09-30T02:01:28Z</time></trkpt>
    <trkpt lat="10.7825049" lon="106.6980000"><time>2026-09-30T02:01:29Z</time></trkpt>
    <trkpt lat="10.7826174" lon="106.6980000"><time>2026-09-30T02:01:30Z</time></trkpt>
    <trkpt lat="10.7827298" lon="106.6980000"><time>2026-09-30T02:01:31Z</time></trkpt>
    <trkpt lat="10.7828422" lon="106.6980000"><time>2026-09-30T02:01:32Z</time></trkpt>
    <trkpt lat="10.7829546" lon="106.6980000"><time>2026-09-30T02:01:33Z</time></trkpt>
    <trkpt lat="10.7830670" lon="106.6980000"><time>2026-09-30T02:01:34Z</time></trkpt>
    <trkpt lat="10.7831794" lon="106.6980000"><time>2026-09-30T02:01:35Z</time></trkpt>
    <trkpt lat="10.7832918" lon="106.6980000"><time>2026-09-30T02:01:36Z</time></trkpt>
    <trkpt lat="10.7834043" lon="106.6980000"><time>2026-09-30T02:01:37Z</time></trkpt>
    <trkpt lat="10.7835167" lon="106.6980000"><time>2026-09-30T02:01:38Z</time></trkpt>
    <trkpt lat="10.7836291" lon="106.6980000"><time>2026-09-30T02:01:39Z</time></trkpt>
    <trkpt lat="10.7837415" lon="106.6980000"><time>2026-09-30T02:01:40Z</time></trkpt>
    <trkpt lat="10.7838539" lon="106.6980000"><time>2026-09-30T02:01:41Z</time></trkpt>
    <trkpt lat="10.7839663" lon="106.6980000"><time>2026-09-30T02:01:42Z</time></trkpt>
    <trkpt lat="10.7840787" lon="106.6980000"><time>2026-09-30T02:01:43Z</time></trkpt>
    <trkpt lat="10.7841912" lon="106.6980000"><time>2026-09-30T02:01:44Z</time></trkpt>
    <trkpt lat="10.7843036" lon="106.6980000"><time>2026-09-30T02:01:45Z</time></trkpt>
    <trkpt lat="10.7844160" lon="106.6980000"><time>2026-09-30T02:01:46Z</time></trkpt>
    <trkpt lat="10.7845284" lon="106.6980000"><time>2026-09-30T02:01:47Z</time></trkpt>
    <trkpt lat="10.7846408" lon="106.6980000"><time>2026-09-30T02:01:48Z</time></trkpt>
    <trkpt lat="10.7847532" lon="106.6980000"><time>2026-09-30T02:01:49Z</time></trkpt>
    <trkpt lat="10.7848657" lon="106.6980000"><time>2026-09-30T02:01:50Z</time></trkpt>
    <trkpt lat="10.7849781" lon="106.6980000"><time>2026-09-30T02:01:51Z</time></trkpt>
    <trkpt lat="10.7850905" lon="106.6980000"><time>2026-09-30T02:01:52Z</time></trkpt>
    <trkpt lat="10.7852029" lon="106.6980000"><time>2026-09-30T02:01:53Z</time></trkpt>
    <trkpt lat="10.7853153" lon="106.6980000"><time>2026-09-30T02:01:54Z</time></trkpt>
    <trkpt lat="10.7854277" lon="106.6980000"><time>2026-09-30T02:01:55Z</time></trkpt>
    <trkpt lat="10.7855401" lon="106.6980000"><time>2026-09-30T02:01:56Z</time></trkpt>
    <trkpt lat="10.7856526" lon="106.6980000"><time>2026-09-30T02:01:57Z</time></trkpt>
    <trkpt lat="10.7857650" lon="106.6980000"><time>2026-09-30T02:01:58Z</time></trkpt>
    <trkpt lat="10.7858774" lon="106.6980000"><time>2026-09-30T02:01:59Z</time></trkpt>
    <trkpt lat="10.7859898" lon="106.6980000"><time>2026-09-30T02:02:00Z</time></trkpt>
    <trkpt lat="10.7861022" lon="106.6980000"><time>2026-09-30T02:02:01Z</time></trkpt>
    <trkpt lat="10.7862146" lon="106.6980000"><time>2026-09-30T02:02:02Z</time></trkpt>
    <trkpt lat="10.7863271" lon="106.6980000"><time>2026-09-30T02:02:03Z</time></trkpt>
    <trkpt lat="10.7864395" lon="106.6980000"><time>2026-09-30T02:02:04Z</time></trkpt>
    <trkpt lat="10.7865519" lon="106.6980000"><time>2026-09-30T02:02:05Z</time></trkpt>
    <trkpt lat="10.7866643" lon="106.6980000"><time>2026-09-30T02:02:06Z</time></trkpt>
    <trkpt lat="10.7867767" lon="106.6980000"><time>2026-09-30T02:02:07Z</time></trkpt>
    <trkpt lat="10.7868891" lon="106.6980000"><time>2026-09-30T02:02:08Z</time></trkpt>
    <trkpt lat="10.7870015" lon="106.6980000"><time>2026-09-30T02:02:09Z</time></trkpt>
    <trkpt lat="10.7871140" lon="106.6980000"><time>2026-09-30T02:02:10Z</time></trkpt>
    <trkpt lat="10.7872264" lon="106.6980000"><time>2026-09-30T02:02:11Z</time></trkpt>
    <trkpt lat="10.7873388" lon="106.6980000"><time>2026-09-30T02:02:12Z</time></trkpt>
    <trkpt lat="10.7874512" lon="106.6980000"><time>2026-09-30T02:02:13Z</time></trkpt>
    <trkpt lat="10.7875636" lon="106.6980000"><time>2026-09-30T02:02:14Z</time></trkpt>
    <trkpt lat="10.7876760" lon="106.6980000"><time>2026-09-30T02:02:15Z</time></trkpt>
    <trkpt lat="10.7877884" lon="106.6980000"><time>2026-09-30T02:02:16Z</time></trkpt>
    <trkpt lat="10.7879009" lon="106.6980000"><time>2026-09-30T02:02:17Z</time></trkpt>
    <trkpt lat="10.7880133" lon="106.6980000"><time>2026-09-30T02:02:18Z</time></trkpt>
    <trkpt lat="10.7881257" lon="106.6980000"><time>2026-09-30T02:02:19Z</time></trkpt>
    <trkpt lat="10.7882381" lon="106.6980000"><time>2026-09-30T02:02:20Z</time></trkpt>
    <trkpt lat="10.7883505" lon="106.6980000"><time>2026-09-30T02:02:21Z</time></trkpt>
    <trkpt lat="10.7884629" lon="106.6980000"><time>2026-09-30T02:02:22Z</time></trkpt>
    <trkpt lat="10.7885754" lon="106.6980000"><time>2026-09-30T02:02:23Z</time></trkpt>
    <trkpt lat="10.7886878" lon="106.6980000"><time>2026-09-30T02:02:24Z</time></trkpt>
    <trkpt lat="10.7888002" lon="106.6980000"><time>2026-09-30T02:02:25Z</time></trkpt>
    <trkpt lat="10.7889126" lon="106.6980000"><time>2026-09-30T02:02:26Z</time></trkpt>
    <trkpt lat="10.7890250" lon="106.6980000"><time>2026-09-30T02:02:27Z</time></trkpt>
    <trkpt lat="10.7891374" lon="106.6980000"><time>2026-09-30T02:02:28Z</time></trkpt>
    <trkpt lat="10.7892498" lon="106.6980000"><time>2026-09-30T02:02:29Z</time></trkpt>
    <trkpt lat="10.7893623" lon="106.6980000"><time>2026-09-30T02:02:30Z</time></trkpt>
    <trkpt lat="10.7894747" lon="106.6980000"><time>2026-09-30T02:02:31Z</time></trkpt>
    <trkpt lat="10.7895871" lon="106.6980000"><time>2026-09-30T02:02:32Z</time></trkpt>
    <trkpt lat="10.7896995" lon="106.6980000"><time>2026-09-30T02:02:33Z</time></trkpt>
    <trkpt lat="10.7898119" lon="106.6980000"><time>2026-09-30T02:02:34Z</time></trkpt>
    <trkpt lat="10.7899243" lon="106.6980000"><time>2026-09-30T02:02:35Z</time></trkpt>
    <trkpt lat="10.7900367" lon="106.6980000"><time>2026-09-30T02:02:36Z</time></trkpt>
    <trkpt lat="10.7901492" lon="106.6980000"><time>2026-09-30T02:02:37Z</time></trkpt>
    <trkpt lat="10.7902616" lon="106.6980000"><time>2026-09-30T02:02:38Z</time></trkpt>
    <trkpt lat="10.7903740" lon="106.6980000"><time>2026-09-30T02:02:39Z</time></trkpt>
    <trkpt lat="10.7904864" lon="106.6980000"><time>2026-09-30T02:02:40Z</time></trkpt>
  </trkseg></trk>
</gpx>
