<?xml version="1.0" encoding="UTF-8"?>
<gpx version="1.1" creator="RouteTrackingServer test fixtures" xmlns="http://www.topografix.com/GPX/1/1">
  <metadata><name>tunnel_gap</name><desc>straight_2km with no fixes for 90 s (02:01:00 to 02:02:30): the car drives 1125 m through a tunnel at 12.5 m/s</desc></metadata>
  <trk><name>tunnel_gap</name><trkseg>
    <trkpt lat="10.7725000" lon="106.6980000"><time>2026-09-30T02:00:00Z</time></trkpt>
    <trkpt lat="10.7726124" lon="106.6980000"><time>2026-09-30T02:00:01Z</time></trkpt>
    <trkpt lat="10.7727248" lon="106.6980000"><time>2026-09-30T02:00:02Z</time></trkpt>
    <trkpt lat="10.7728372" lon="106.6980000"><time>2026-09-30T02:00:03Z</time></trkpt>
    <trkpt lat="10.7729497" lon="106.6980000"><time>2026-09-30T02:00:04Z</time></trkpt>
    <trkpt lat="10.7730621" lon="106.6980000"><time>2026-09-30T02:00:05Z</time></trkpt>
    <trkpt lat="10.7731745" lon="106.6980000"><time>2026-09-30T02:00:06Z</time></trkpt>
    <trkpt lat="10.7732869" lon="106.6980000"><time>2026-09-30T02:00:07Z</time></trkpt>
    <trkpt lat="10.7733993" lon="106.6980000"><time>2026-09-30T02:00:08Z</time></trkpt>
    <trkpt lat="10.7735117" lon="106.6980000"><time>2026-09-30T02:00:09Z</time></trkpt>
    <trkpt lat="10.7736242" lon="106.6980000"><time>2026-09-30T02:00:10Z</time></trkpt>
    <trkpt lat="10.7737366" lon="106.6980000"><time>2026-09-30T02:00:11Z</time></trkpt>
    <trkpt lat="10.7738490" lon="106.6980000"><time>2026-09-30T02:00:12Z</time></trkpt>
    <trkpt lat="10.7739614" lon="106.6980000"><time>2026-09-30T02:00:13Z</time></trkpt>
    <trkpt lat="10.7740738" lon="106.6980000"><time>2026-09-30T02:00:14Z</time></trkpt>
    <trkpt lat="10.7741862" lon="106.6980000"><time>2026-09-30T02:00:15Z</time></trkpt>
    <trkpt lat="10.7742986" lon="106.6980000"><time>2026-09-30T02:00:16Z</time></trkpt>
    <trkpt lat="10.7744111" lon="106.6980000"><time>2026-09-30T02:00:17Z</time></trkpt>
    <trkpt lat="10.7745235" lon="106.6980000"><time>2026-09-30T02:00:18Z</time></trkpt>
    <trkpt lat="10.7746359" lon="106.6980000"><time>2026-09-30T02:00:19Z</time></trkpt>
    <trkpt lat="10.7747483" lon="106.6980000"><time>2026-09-30T02:00:20Z</time></trkpt>
    <trkpt lat="10.7748607" lon="106.6980000"><time>2026-09-30T02:00:21Z</time></trkpt>
    <trkpt lat="10.7749731" lon="106.6980000"><time>2026-09-30T02:00:22Z</time></trkpt>
    <trkpt lat="10.7750855" lon="106.6980000"><time>2026-09-30T02:00:23Z</time></trkpt>
    <trkpt lat="10.7751980" lon="106.6980000"><time>2026-09-30T02:00:24Z</time></trkpt>
    <trkpt lat="10.7753104" lon="106.6980000"><time>2026-09-30T02:00:25Z</time></trkpt>
    <trkpt lat="10.7754228" lon="106.6980000"><time>2026-09-30T02:00:26Z</time></trkpt>
    <trkpt lat="10.7755352" lon="106.6980000"><time>2026-09-30T02:00:27Z</time></trkpt>
    <trkpt lat="10.7756476" lon="106.6980000"><time>2026-09-30T02:00:28Z</time></trkpt>
    <trkpt lat="10.7757600" lon="106.6980000"><time>2026-09-30T02:00:29Z</time></trkpt>
    <trkpt lat="10.7758725" lon="106.6980000"><time>2026-09-30T02:00:30Z</time></trkpt>
    <trkpt lat="10.7759849" lon="106.6980000"><time>2026-09-30T02:00:31Z</time></trkpt>
    <trkpt lat="10.7760973" lon="106.6980000"><time>2026-09-30T02:00:32Z</time></trkpt>
    <trkpt lat="10.7762097" lon="106.6980000"><time>2026-09-30T02:00:33Z</time></trkpt>
    <trkpt lat="10.7763221" lon="106.6980000"><time>2026-09-30T02:00:34Z</time></trkpt>
    <trkpt lat="10.7764345" lon="106.6980000"><time>2026-09-30T02:00:35Z</time></trkpt>
    <trkpt lat="10.7765469" lon="106.6980000"><time>2026-09-30T02:00:36Z</time></trkpt>
    <trkpt lat="10.7766594" lon="106.6980000"><time>2026-09-30T02:00:37Z</time></trkpt>
    <trkpt lat="10.7767718" lon="106.6980000"><time>2026-09-30T02:00:38Z</time></trkpt>
    <trkpt lat="10.7768842" lon="106.6980000"><time>2026-09-30T02:00:39Z</time></trkpt>
    <trkpt lat="10.7769966" lon="106.6980000"><time>2026-09-30T02:00:40Z</time></trkpt>
    <trkpt lat="10.7771090" lon="106.6980000"><time>2026-09-30T02:00:41Z</time></trkpt>
    <trkpt lat="10.7772214" lon="106.6980000"><time>2026-09-30T02:00:42Z</time></trkpt>
    <trkpt lat="10.7773338" lon="106.6980000"><time>2026-09-30T02:00:43Z</time></trkpt>
    <trkpt lat="10.7774463" lon="106.6980000"><time>2026-09-30T02:00:44Z</time></trkpt>
    <trkpt lat="10.7775587" lon="106.6980000"><time>2026-09-30T02:00:45Z</time></trkpt>
    <trkpt lat="10.7776711" lon="106.6980000"><time>2026-09-30T02:00:46Z</time></trkpt>
    <trkpt lat="10.7777835" lon="106.6980000"><time>2026-09-30T02:00:47Z</time></trkpt>
    <trkpt lat="10.7778959" lon="106.6980000"><time>2026-09-30T02:00:48Z</time></trkpt>
    <trkpt lat="10.7780083" lon="106.6980000"><time>2026-09-30T02:00:49Z</time></trkpt>
    <trkpt lat="10.7781208" lon="106.6980000"><time>2026-09-30T02:00:50Z</time></trkpt>
    <trkpt lat="10.7782332" lon="106.6980000"><time>2026-09-30T02:00:51Z</time></trkpt>
    <trkpt lat="10.7783456" lon="106.6980000"><time>2026-09-30T02:00:52Z</time></trkpt>
    <trkpt lat="10.7784580" lon="106.6980000"><time>2026-09-30T02:00:53Z</time></trkpt>
    <trkpt lat="10.7785704" lon="106.6980000"><time>2026-09-30T02:00:54Z</time></trkpt>
    <trkpt lat="10.7786828" lon="106.6980000"><time>2026-09-30T02:00:55Z</time></trkpt>
    <trkpt lat="10.7787952" lon="106.6980000"><time>2026-09-30T02:00:56Z</time></trkpt>
    <trkpt lat="10.7789077" lon="106.6980000"><time>2026-09-30T02:00:57Z</time></trkpt>
    <trkpt lat="10.7790201" lon="106.6980000"><time>2026-09-30T02:00:58Z</time></trkpt>
    <trkpt lat="10.7791325" lon="106.6980000"><time>2026-09-30T02:00:59Z</time></trkpt>
    <trkpt lat="10.7792449" lon="106.6980000"><time>2026-09-30T02:01:00Z</time></trkpt>
    <trkpt lat="10.7893623" lon="106.6980000"><time>2026-09-30T02:02:30Z</time></trkpt>
    <trkpt lat="10.7894747" lon="106.6980000"><time>2026-09-30T02:02:31Z</time></trkpt>
    <trkpt lat="10.7895871" lon="106.6980000"><time>2026-09-30T02:02:32Z</time></trkpt>
    <trkpt lat="10.7896995" lon="106.6980000"><time>2026-09-30T02:02:33Z</time></trkpt>
    <trkpt lat="10.7898119" lon="106.6980000"><time>2026-09-30T02:02:34Z</time></trkpt>
    <trkpt lat="10.7899243" lon="106.6980000"><time>2026-09-30T02:02:35Z</time></trkpt>
    <trkpt lat="10.7900367" lon="106.6980000"><time>2026-09-30T02:02:36Z</time></trkpt>
    <trkpt lat="10.7901492" lon="106.6980000"><time>2026-09-30T02:02:37Z</time></trkpt>
    <trkpt lat="10.7902616" lon="106.6980000"><time>2026-09-30T02:02:38Z</time></trkpt>
    <trkpt lat="10.7903740" lon="106.6980000"><time>2026-09-30T02:02:39Z</time></trkpt>
    <trkpt lat="10.7904864" lon="106.6980000"><time>2026-09-30T02:02:40Z</time></trkpt>
  </trkseg></trk>
</gpx>
